#aV2006 10 17  0  0   .00000000      96 DD+AD WGS84 FIT  NGA
## 1397 172800.00000000   900.00000000 54025  .0000000000000
+   30     1  2  3  4  5  6  7  8  9 10 11 13 14 15 16 17 18
+         19 20 21 22 23 24 25 26 27 28 29 30 31  0  0  0  0
+          0  0  0  0  0  0  0  0  0  0  0  0  0  0  0  0  0
+          0  0  0  0  0  0  0  0  0  0  0  0  0  0  0  0  0
+          0  0  0  0  0  0  0  0  0  0  0  0  0  0  0  0  0
++         0  0  0  0  0  0  0  0  0  0  0  0  0  0  0  0  0
++         0  0  0  0  0  0  0  0  0  0  0  0  0  0  0  0  0
++         0  0  0  0  0  0  0  0  0  0  0  0  0  0  0  0  0
++         0  0  0  0  0  0  0  0  0  0  0  0  0  0  0  0  0
++         0  0  0  0  0  0  0  0  0  0  0  0  0  0  0  0  0
%c cc cc ccc ccc cccc cccc cccc cccc ccccc ccccc ccccc ccccc
%c cc cc ccc ccc cccc cccc cccc cccc ccccc ccccc ccccc ccccc
%f  0.0000000  0.000000000  0.00000000000  0.000000000000000
%f  0.0000000  0.000000000  0.00000000000  0.000000000000000
%i    0    0    0    0      0      0      0      0         0
%i    0    0    0    0      0      0      0      0         0
/*      NGA, ST. LOUIS,MO.                                  
/*   EPHEMERIS COMPUTED FROM  3 DAYS OF DATA                
/* CCCCCCCCCCCCCCCCCCCCCCCCCCCCCCCCCCCCCCCCCCCCCCCCCCCCCCCCC
/* CCCCCCCCCCCCCCCCCCCCCCCCCCCCCCCCCCCCCCCCCCCCCCCCCCCCCCCCC
*  2006 10 17 12 15   .00000000                                                 
P  1  -2291.755161 -14504.447766  22333.442731     83.096763                    
V  1  27383.202236  -4708.934770   -314.575513       .022318                    
P  2  10980.391864  22210.689821   9646.055712     45.625996                    
V  2 -10494.299654  -7383.929396  28016.233350       .037262                    
P  3  -8029.566761 -14157.084162 -21203.216464    302.596571                    
V  3  25246.517553  -8391.600424  -3667.731414       .670087                    
P  4  -1656.331363  18519.771921  18787.631514    325.096807                    
V  4 -17277.436765 -16913.842900  15466.466542       .049021                    
P  5  14546.353246   6011.507363  21180.506600    363.630618                    
V  5  -6415.445259  26738.093232  -2991.789208       .026131                    
P  6  25699.393696  -6811.160458   -349.581120    577.998487                    
V  6   1539.542551   3339.355105  31108.781872      -.089258                    
P  7   9993.901921 -16545.223863 -17916.679055    512.265372                    
V  7  23135.770309  -4480.967306  16644.780190      -.059922                    
P  8  -9790.039595  11507.509812 -21951.420277    -83.296983                    
V  8 -17968.561755 -20870.295808  -3364.561699      -.013145                    
P  9  20799.088699  15516.036273   5668.172419     40.645445                    
V  9   3701.594935   7419.827142 -30539.716674       .016886                    
P 10   3243.085297  21691.668428 -14850.637243     91.279373                    
V 10  -8008.944288  17114.411831  23703.385145       .006291                    
P 11 -23168.676975 -10831.900407   7578.810944    355.573199                    
V 11  -4924.083445  -9461.696431 -28007.267483       .017973                    
P 13 -25608.438607   6511.640129  -2564.431907    104.086031                    
V 13  -3414.690941  -1181.624962  32271.112298       .035163                    
P 14  14720.890482 -14334.249505  16864.968635     -3.275831                    
V 14  21076.248872  -2938.218614 -21057.690112       .008384                    
P 15   9271.060388 -12771.533386 -21445.447495    -21.822562                    
V 15  17181.069256  20837.214970  -5439.513099      -.136329                    
P 16   -754.788587 -23714.352380 -11739.061428     82.905175                    
V 16   7052.901391 -13532.312150  26830.490976       .035572                    
P 17 -14907.323716  14793.607336  16191.202035     92.568633                    
V 17 -20563.190932   2422.522604 -21242.638612      -.011782                    
P 18  16506.214031 -13844.794348 -15191.452732   -251.098263                    
V 18  -4553.566571  19269.197848 -22642.303797      -.006981                    
P 19 -17802.228957  -9490.037274 -17214.758886     25.173923                    
V 19  21510.244190  -5086.463680 -19247.865916       .035381                    
P 20 -15347.829986  -1824.294348  21510.413067    -22.037230                    
V 20   7784.991818 -26421.018186   3329.700673       .001189                    
P 21  15496.342665  -5261.839184 -20913.791763     57.514777                    
V 21  16899.110241  20729.485177   6730.239513       .016445                    
P 22  11844.409343 -23385.505330  -4030.865008    142.522539                    
V 22    970.737351   6055.840488 -31055.279215       .026385                    
P 23 -25124.058599   -673.571357   8799.854612    138.891959                    
V 23  10497.086731  -4544.780452  29146.250958       .004954                    
P 24   -750.474981  19343.875508  18291.818412     44.722819                    
V 24 -15818.734002 -16622.256667  17412.256918       .032285                    
P 25  -5572.400903 -20536.828167  16197.914072    383.100791                    
V 25  16060.191259  11935.757229  21331.370826       .137709                    
P 26  17195.305504   9217.352878 -18693.029214   -297.105743                    
V 26 -22121.584854   4751.353900 -17855.318515      -.156077                    
P 27 -16860.449039   2913.093169 -19779.701301     73.260176                    
V 27 -18202.414387 -19163.468141  12022.056692       .019954                    
P 28 -13102.088633  21406.042222  -7830.656326     16.348849                    
V 28    556.147315 -10847.590005 -29812.109381      -.007767                    
P 29  13567.206804  10546.022948 -20114.394232     83.518781                    
V 29 -25108.254143   6341.451779 -13161.593959       .498790                    
P 30  16428.117295  -8451.459456  18740.501937     13.446761                    
V 30  -4939.634014  24078.632906  15063.393660       .011850                    
P 31  -3093.466341 -20612.009039  16627.647007    -73.024445                    
V 31  15407.401614  14064.903514  20572.011320       .136050                    
EOF
